{
  "type": "FeatureCollection",
  "features": [
    {
      "type": "Feature",
      "properties": {
        "norad_id": 30368,
        "name": "FENGYUN 1C DEB",
        "group": "fengyun-1c-debris",
        "lat": 61.825453885805196,
        "lon": 68.44188058390417,
        "alt_km": 988.5794715530001,
        "timestamp": "2025-12-05T20:43:02.331177+00:00",
        "meta_object_name": "FENGYUN 1C DEB",
        "meta_object_id": "1999-025ACF",
        "meta_epoch": "2025-12-05T06:34:39.692928",
        "meta_mean_motion": 13.75354381,
        "meta_eccentricity": 0.01861032,
        "meta_inclination": 99.1887,
        "meta_ra_of_asc_node": 85.4633,
        "meta_arg_of_pericenter": 327.8193,
        "meta_mean_anomaly": 57.8629,
        "meta_ephemeris_type": 0,
        "meta_classification_type": "U",
        "meta_norad_cat_id": 30368,
        "meta_element_set_no": 999,
        "meta_rev_at_epoch": 94559,
        "meta_bstar": 0.00058763055,
        "meta_mean_motion_dot": 5.96e-06,
        "meta_mean_motion_ddot": 0,
        "tle_line1": "1 30368U 99025ACF 25339.27407052  .00000596  00000+0  58763-3 0  9995",
        "tle_line2": "2 30368  99.1887  85.4633 0186103 327.8193  57.8629 13.75354381945594"
      },
      "geometry": {
        "type": "Point",
        "coordinates": [
          68.44188058390417,
          61.825453885805196
        ]
      }
    },
    {
      "type": "Feature",
      "properties": {
        "norad_id": 30369,
        "name": "FENGYUN 1C DEB",
        "group": "fengyun-1c-debris",
        "lat": 68.70101075853914,
        "lon": -179.40964679901208,
        "alt_km": 864.3084681799573,
        "timestamp": "2025-12-05T20:43:02.331186+00:00",
        "meta_object_name": "FENGYUN 1C DEB",
        "meta_object_id": "1999-025ACG",
        "meta_epoch": "2025-12-05T06:39:54.347904",
        "meta_mean_motion": 14.12048484,
        "meta_eccentricity": 0.00988718,
        "meta_inclination": 98.7208,
        "meta_ra_of_asc_node": 336.8358,
        "meta_arg_of_pericenter": 216.7971,
        "meta_mean_anomaly": 159.0678,
        "meta_ephemeris_type": 0,
        "meta_classification_type": "U",
        "meta_norad_cat_id": 30369,
        "meta_element_set_no": 999,
        "meta_rev_at_epoch": 97141,
        "meta_bstar": 0.00034802778,
        "meta_mean_motion_dot": 6.24e-06,
        "meta_mean_motion_ddot": 0,
        "tle_line1": "1 30369U 99025ACG 25339.27771236  .00000624  00000+0  34803-3 0  9995",
        "tle_line2": "2 30369  98.7208 336.8358 0098871 216.7971 159.0678 14.12048484971413"
      },
      "geometry": {
        "type": "Point",
        "coordinates": [
          -179.40964679901208,
          68.70101075853914
        ]
      }
    },
    {
      "type": "Feature",
      "properties": {
        "norad_id": 30370,
        "name": "FENGYUN 1C DEB",
        "group": "fengyun-1c-debris",
        "lat": -38.78243048697826,
        "lon": -151.70226547074708,
        "alt_km": 867.7317202280492,
        "timestamp": "2025-12-05T20:43:02.331196+00:00",
        "meta_object_name": "FENGYUN 1C DEB",
        "meta_object_id": "1999-025ACH",
        "meta_epoch": "2025-12-05T03:00:33.412608",
        "meta_mean_motion": 14.19093192,
        "meta_eccentricity": 0.00992045,
        "meta_inclination": 99.0575,
        "meta_ra_of_asc_node": 34.9079,
        "meta_arg_of_pericenter": 339.3089,
        "meta_mean_anomaly": 73.657,
        "meta_ephemeris_type": 0,
        "meta_classification_type": "U",
        "meta_norad_cat_id": 30370,
        "meta_element_set_no": 999,
        "meta_rev_at_epoch": 96986,
        "meta_bstar": 0.0024150856,
        "meta_mean_motion_dot": 5.259e-05,
        "meta_mean_motion_ddot": 0,
        "tle_line1": "1 30370U 99025ACH 25339.12538672  .00005259  00000+0  24151-2 0  9999",
        "tle_line2": "2 30370  99.0575  34.9079 0099204 339.3089  73.6570 14.19093192969866"
      },
      "geometry": {
        "type": "Point",
        "coordinates": [
          -151.70226547074708,
          -38.78243048697826
        ]
      }
    },
    {
      "type": "Feature",
      "properties": {
        "norad_id": 30371,
        "name": "FENGYUN 1C DEB",
        "group": "fengyun-1c-debris",
        "lat": -35.718883378988465,
        "lon": 29.195692540664332,
        "alt_km": 793.1898986556007,
        "timestamp": "2025-12-05T20:43:02.331206+00:00",
        "meta_object_name": "FENGYUN 1C DEB",
        "meta_object_id": "1999-025ACJ",
        "meta_epoch": "2025-12-05T02:40:05.271168",
        "meta_mean_motion": 14.3017108,
        "meta_eccentricity": 0.00071684,
        "meta_inclination": 98.5766,
        "meta_ra_of_asc_node": 22.2247,
        "meta_arg_of_pericenter": 1.4634,
        "meta_mean_anomaly": 52.6844,
        "meta_ephemeris_type": 0,
        "meta_classification_type": "U",
        "meta_norad_cat_id": 30371,
        "meta_element_set_no": 999,
        "meta_rev_at_epoch": 97794,
        "meta_bstar": 0.002336764,
        "meta_mean_motion_dot": 6.011e-05,
        "meta_mean_motion_ddot": 0,
        "tle_line1": "1 30371U 99025ACJ 25339.11117212  .00006011  00000+0  23368-2 0  9998",
        "tle_line2": "2 30371  98.5766  22.2247 0007168   1.4634  52.6844 14.30171080977946"
      },
      "geometry": {
        "type": "Point",
        "coordinates": [
          29.195692540664332,
          -35.718883378988465
        ]
      }
    },
    {
      "type": "Feature",
      "properties": {
        "norad_id": 30374,
        "name": "FENGYUN 1C DEB",
        "group": "fengyun-1c-debris",
        "lat": 3.078805556205616,
        "lon": -157.9292342045719,
        "alt_km": 719.6449360499855,
        "timestamp": "2025-12-05T20:43:02.331216+00:00",
        "meta_object_name": "FENGYUN 1C DEB",
        "meta_object_id": "1999-025ACM",
        "meta_epoch": "2025-12-04T20:19:47.153856",
        "meta_mean_motion": 14.61083249,
        "meta_eccentricity": 0.00392337,
        "meta_inclination": 99.2728,
        "meta_ra_of_asc_node": 201.437,
        "meta_arg_of_pericenter": 192.6936,
        "meta_mean_anomaly": 228.6622,
        "meta_ephemeris_type": 0,
        "meta_classification_type": "U",
        "meta_norad_cat_id": 30374,
        "meta_element_set_no": 999,
        "meta_rev_at_epoch": 98807,
        "meta_bstar": 0.0038658351,
        "meta_mean_motion_dot": 0.00019197,
        "meta_mean_motion_ddot": 0,
        "tle_line1": "1 30374U 99025ACM 25338.84707354  .00019197  00000+0  38658-2 0  9999",
        "tle_line2": "2 30374  99.2728 201.4370 0039233 192.6936 228.6622 14.61083249988077"
      },
      "geometry": {
        "type": "Point",
        "coordinates": [
          -157.9292342045719,
          3.078805556205616
        ]
      }
    },
    {
      "type": "Feature",
      "properties": {
        "norad_id": 30377,
        "name": "FENGYUN 1C DEB",
        "group": "fengyun-1c-debris",
        "lat": -72.02540950658442,
        "lon": 150.6944728982543,
        "alt_km": 830.4080641736164,
        "timestamp": "2025-12-05T20:43:02.331226+00:00",
        "meta_object_name": "FENGYUN 1C DEB",
        "meta_object_id": "1999-025ACQ",
        "meta_epoch": "2025-12-05T07:34:49.816704",
        "meta_mean_motion": 13.99160099,
        "meta_eccentricity": 0.01182279,
        "meta_inclination": 98.8945,
        "meta_ra_of_asc_node": 359.0235,
        "meta_arg_of_pericenter": 287.3816,
        "meta_mean_anomaly": 92.0472,
        "meta_ephemeris_type": 0,
        "meta_classification_type": "U",
        "meta_norad_cat_id": 30377,
        "meta_element_set_no": 999,
        "meta_rev_at_epoch": 96103,
        "meta_bstar": 0.0005242676,
        "meta_mean_motion_dot": 7.63e-06,
        "meta_mean_motion_ddot": 0,
        "tle_line1": "1 30377U 99025ACQ 25339.31585436  .00000763  00000+0  52427-3 0  9990",
        "tle_line2": "2 30377  98.8945 359.0235 0118227 287.3816  92.0472 13.99160099961038"
      },
      "geometry": {
        "type": "Point",
        "coordinates": [
          150.6944728982543,
          -72.02540950658442
        ]
      }
    },
    {
      "type": "Feature",
      "properties": {
        "norad_id": 30379,
        "name": "FENGYUN 1C DEB",
        "group": "fengyun-1c-debris",
        "lat": 25.945468766693423,
        "lon": 179.11100945327172,
        "alt_km": 886.4337029317339,
        "timestamp": "2025-12-05T20:43:02.331236+00:00",
        "meta_object_name": "FENGYUN 1C DEB",
        "meta_object_id": "1999-025ACS",
        "meta_epoch": "2025-12-05T06:37:39.353952",
        "meta_mean_motion": 14.0802257,
        "meta_eccentricity": 0.00356144,
        "meta_inclination": 98.7585,
        "meta_ra_of_asc_node": 354.2397,
        "meta_arg_of_pericenter": 300.8258,
        "meta_mean_anomaly": 118.889,
        "meta_ephemeris_type": 0,
        "meta_classification_type": "U",
        "meta_norad_cat_id": 30379,
        "meta_element_set_no": 999,
        "meta_rev_at_epoch": 96712,
        "meta_bstar": 0.00056825757,
        "meta_mean_motion_dot": 9.29e-06,
        "meta_mean_motion_ddot": 0,
        "tle_line1": "1 30379U 99025ACS 25339.27614993  .00000929  00000+0  56826-3 0  9999",
        "tle_line2": "2 30379  98.7585 354.2397 0035614 300.8258 118.8890 14.08022570967123"
      },
      "geometry": {
        "type": "Point",
        "coordinates": [
          179.11100945327172,
          25.945468766693423
        ]
      }
    }
  ]
}